HIMAWARI-8              
1 40267U 14060A   24211.47804211 -.00000279  00000+0  00000+0 0  9994
2 40267   0.0375 229.7385 0000838 319.6620  70.9543  1.00271833 35863
